NORAD_CAT_ID,OBJECT_NAME,OBJECT_TYPE,EPOCH,MEAN_MOTION,ECCENTRICITY,INCLINATION,RA_OF_ASC_NODE,ARG_OF_PERICENTER,MEAN_ANOMALY,BSTAR,MEAN_MOTION_DOT,MEAN_MOTION_DDOT,TLE_LINE0,TLE_LINE1,TLE_LINE2,SEMIMAJOR_AXIS,PERIOD,APOGEE,PERIGEE,DECAYED
50192.0,STARLINK-3259,PAYLOAD,2022-07-20 09:18:25,15.08846545,0.000168,53.2178,82.0994,48.4236,311.69,0.00013245,1.821e-05,0.0,0 STARLINK-3259,1 50192U 21125AN  22201.38779000  .00001821  00000-0  13245-3 0  9999,2 50192  53.2178  82.0994 0001680  48.4236 311.6900 15.08846545 33113,6917.86,95.437,540.888,538.563,0.0
50192.0,STARLINK-3259,PAYLOAD,2022-07-20 20:26:07,15.08844069,0.0001592,53.2181,80.018,48.8747,311.2383,6.891e-05,8.09e-06,0.0,0 STARLINK-3259,1 50192U 21125AN  22201.85147140  .00000809  00000-0  68910-4 0  9990,2 50192  53.2181  80.0180 0001592  48.8747 311.2383 15.08844069 36275,6917.868,95.437,540.8340000000002,538.632,0.0
50192.0,STARLINK-3259,PAYLOAD,2022-07-21 01:12:16,15.08842577,0.0001718,53.2182,79.1263,53.6088,306.5063,0.00010215,1.338e-05,0.0,0 STARLINK-3259,1 50192U 21125AN  22202.05019152  .00001338  00000-0  10215-3 0  9996,2 50192  53.2182  79.1263 0001718  53.6088 306.5063 15.08842577 33214,6917.873000000001,95.437,540.9259999999998,538.549,0.0
50192.0,STARLINK-3259,PAYLOAD,2022-07-21 09:09:13,15.08825939,0.0001758,53.2172,77.6382,51.5301,308.5848,-7.177e-05,-1.4300000000000004e-05,0.0,0 STARLINK-3259,1 50192U 21125AN  22202.38140923 -.00001430  00000-0 -71770-4 0  9992,2 50192  53.2172  77.6382 0001758  51.5301 308.5848 15.08825939 33268,6917.9230000000025,95.438,541.005,538.572,0.0
50192.0,STARLINK-3259,PAYLOAD,2022-07-22 01:03:05,15.08826993,0.0001649,53.218,74.6651,52.0065,308.1076,-7.599e-05,-1.497e-05,0.0,0 STARLINK-3259,1 50192U 21125AN  22203.04381321 -.00001497  00000-0 -75990-4 0  9996,2 50192  53.2180  74.6651 0001649  52.0065 308.1076 15.08826993 36459,6917.92,95.438,540.9259999999998,538.644,0.0
50192.0,STARLINK-3259,PAYLOAD,2022-07-22 09:00:00,15.08834908,0.000169,53.2184,73.1779,51.4198,308.6946,-2.8943e-05,-7.49e-06,0.0,0 STARLINK-3259,1 50192U 21125AN  22203.37500879 -.00000749  00000-0 -28943-4 0  9998,2 50192  53.2184  73.1779 0001690  51.4198 308.6946 15.08834908 33413,6917.896,95.438,540.93,538.592,0.0
50192.0,STARLINK-3259,PAYLOAD,2022-07-22 21:43:05,15.08841252,0.0001735,53.2179,70.7996,53.0574,307.0577,4.491e-05,4.27e-06,0.0,0 STARLINK-3259,1 50192U 21125AN  22203.90492366  .00000427  00000-0  44910-4 0  9991,2 50192  53.2179  70.7996 0001735  53.0574 307.0577 15.08841252 36581,6917.877,95.437,540.942,538.5409999999998,0.0
50192.0,STARLINK-3259,PAYLOAD,2022-07-23 00:53:51,15.08843431,0.0001716,53.218,70.2047,54.4147,305.7005,5.2258e-05,5.44e-06,0.0,0 STARLINK-3259,1 50192U 21125AN  22204.03740232  .00000544  00000-0  52258-4 0  9998,2 50192  53.2180  70.2047 0001716  54.4147 305.7005 15.08843431 36600,6917.87,95.437,540.922,538.548,0.0
50192.0,STARLINK-3259,PAYLOAD,2022-07-23 21:33:52,15.08831096,0.0001685,53.2178,66.3396,49.4873,310.6266,0.00017405,2.482e-05,0.0,0 STARLINK-3259,1 50192U 21125AN  22204.89852965  .00002482  00000-0  17405-3 0  9996,2 50192  53.2178  66.3396 0001685  49.4873 310.6266 15.08831096 36737,6917.908,95.438,540.938,538.607,0.0
50192.0,STARLINK-3259,PAYLOAD,2022-07-24 21:24:40,15.08814793,0.0001554,53.2173,61.8791,52.2659,307.8474,0.00032075,4.817e-05,0.0,0 STARLINK-3259,1 50192U 21125AN  22205.89213989  .00004817  00000-0  32075-3 0  9998,2 50192  53.2173  61.8791 0001554  52.2659 307.8474 15.08814793 33797,6917.956999999999,95.439,540.8969999999998,538.747,0.0
50192.0,STARLINK-3259,PAYLOAD,2022-07-25 00:35:26,15.08840236,0.0001706999999999,53.2178,61.2845,50.0052,310.1090000000001,-3.8093e-05,-8.94e-06,0.0,0 STARLINK-3259,1 50192U 21125AN  22206.02461104 -.00000894  00000-0 -38093-4 0  9998,2 50192  53.2178  61.2845 0001707  50.0052 310.1090 15.08840236 33814,6917.88,95.438,540.9259999999998,538.564,0.0
50192.0,STARLINK-3259,PAYLOAD,2022-07-25 13:18:31,15.08841656,0.0001716,53.2177,58.9055,49.9308,310.1834,-9.2854e-06,-4.36e-06,0.0,0 STARLINK-3259,1 50192U 21125AN  22206.55452844 -.00000436  00000-0 -92854-5 0  9995,2 50192  53.2177  58.9055 0001716  49.9308 310.1834 15.08841656 36984,6917.875,95.437,540.927,538.553,0.0
50192.0,STARLINK-3259,PAYLOAD,2022-07-25 21:15:26,15.08841554,0.0001746,53.2179,57.4191,51.4956,308.6193,6.9205e-05,8.14e-06,0.0,0 STARLINK-3259,1 50192U 21125AN  22206.88572555  .00000814  00000-0  69205-4 0  9994,2 50192  53.2179  57.4191 0001746  51.4956 308.6193 15.08841554 37035,6917.876,95.437,540.9490000000002,538.533,0.0
50192.0,STARLINK-3259,PAYLOAD,2022-07-26 06:47:47,15.08814843,0.0001718,53.2175,55.6354,53.8345,306.2806,0.00015106,2.115e-05,0.0,0 STARLINK-3259,1 50192U 21125AN  22207.28318306  .00002115  00000-0  15106-3 0  9997,2 50192  53.2175  55.6354 0001718  53.8345 306.2806 15.08814843 34009,6917.956999999999,95.439,541.011,538.634,0.0
50192.0,STARLINK-3259,PAYLOAD,2022-07-26 17:55:28,15.08831349,0.0001759,53.2179,53.5532,52.8802,307.2351,2.5306e-05,1.15e-06,0.0,0 STARLINK-3259,1 50192U 21125AN  22207.74685612  .00000115  00000-0  25306-4 0  9997,2 50192  53.2179  53.5532 0001759  52.8802 307.2351 15.08831349 34073,6917.906999999997,95.438,540.989,538.555,0.0
50192.0,STARLINK-3259,PAYLOAD,2022-07-26 21:06:14,15.08832289,0.0001759,53.2179,52.9585,52.484,307.6312,3.0998000000000004e-05,2.05e-06,0.0,0 STARLINK-3259,1 50192U 21125AN  22207.87933608  .00000205  00000-0  30998-4 0  9995,2 50192  53.2179  52.9585 0001759  52.4840 307.6312 15.08832289 37182,6917.904,95.438,540.986,538.552,0.0
50192.0,STARLINK-3259,PAYLOAD,2022-07-27 01:52:24,15.08832834,0.0001813,53.2175,52.0668,49.1086,311.0063,6.7807e-05,7.91e-06,0.0,0 STARLINK-3259,1 50192U 21125AN  22208.07805562  .00000791  00000-0  67807-4 0  9994,2 50192  53.2175  52.0668 0001813  49.1086 311.0063 15.08832834 37219,6917.901999999999,95.438,541.0219999999998,538.513,0.0
50192.0,STARLINK-3259,PAYLOAD,2022-07-27 19:21:38,15.08842017,0.0001792,53.218,48.7953,51.4392,308.6761,4.8223e-05,4.79e-06,0.0,0 STARLINK-3259,1 50192U 21125AN  22208.80669121  .00000479  00000-0  48223-4 0  9998,2 50192  53.2180  48.7953 0001792  51.4392 308.6761 15.08842017 34236,6917.874,95.437,540.979,538.5,0.0
50192.0,STARLINK-3259,PAYLOAD,2022-07-28 12:50:52,15.08843113,0.0001751999999999,53.218,45.5243,54.2718,305.8437,0.00015199,2.132e-05,0.0,0 STARLINK-3259,1 50192U 21125AN  22209.53532611  .00002132  00000-0  15199-3 0  9995,2 50192  53.2180  45.5243 0001752  54.2718 305.8437 15.08843113 37434,6917.871,95.437,540.948,538.524,0.0
50192.0,STARLINK-3259,PAYLOAD,2022-07-28 17:37:01,15.08844554,0.0001747,53.2179,44.6322,54.0891,306.0263,0.00013539,1.868e-05,0.0,0 STARLINK-3259,1 50192U 21125AN  22209.73404512  .00001868  00000-0  13539-3 0  9996,2 50192  53.2179  44.6322 0001747  54.0891 306.0263 15.08844554 37467,6917.866,95.437,540.94,538.523,0.0
50192.0,STARLINK-3259,PAYLOAD,2022-07-28 22:23:11,15.08839448,0.0001545,53.2189,43.74,57.0443,303.0697,4.1427e-05,3.71e-06,0.0,0 STARLINK-3259,1 50192U 21125AN  22209.93277059  .00000371  00000-0  41427-4 0  9998,2 50192  53.2189  43.7400 0001545  57.0443 303.0697 15.08839448 34402,6917.882,95.438,540.816,538.678,0.0
50192.0,STARLINK-3259,PAYLOAD,2022-07-29 06:20:07,15.08837201,0.0001799,53.2186,42.2539,53.2386,306.8771,4.8733e-05,4.88e-06,0.0,0 STARLINK-3259,1 50192U 21125AN  22210.26397237  .00000488  00000-0  48733-4 0  9993,2 50192  53.2186  42.2539 0001799  53.2386 306.8771 15.08837201 37548,6917.889,95.438,540.998,538.509,0.0
50192.0,STARLINK-3259,PAYLOAD,2022-07-29 19:03:11,15.08844425,0.0001713,53.2187,39.8745,54.6247,305.4905,-4.705600000000001e-07,-2.96e-06,0.0,0 STARLINK-3259,1 50192U 21125AN  22210.79388839 -.00000296  00000-0 -47056-6 0  9997,2 50192  53.2187  39.8745 0001713  54.6247 305.4905 15.08844425 37626,6917.8669999999975,95.437,540.9169999999998,538.547,0.0
50192.0,STARLINK-3259,PAYLOAD,2022-07-29 23:49:21,15.08845802,0.0001743,53.2182,38.9825,54.3689,305.7466,1.2289e-05,-9.2e-07,0.0,0 STARLINK-3259,1 50192U 21125AN  22210.99260651 -.00000092  00000-0  12289-4 0  9991,2 50192  53.2182  38.9825 0001743  54.3689 305.7466 15.08845802 34565,6917.863,95.437,540.933,538.5219999999998,0.0
50192.0,STARLINK-3259,PAYLOAD,2022-07-30 12:32:26,15.08842949,0.0001761999999999,53.2191,36.6029,55.7439,304.372,-1.9891e-05,-6.05e-06,0.0,0 STARLINK-3259,1 50192U 21125AN  22211.52252757 -.00000605  00000-0 -19891-4 0  9996,2 50192  53.2191  36.6029 0001762  55.7439 304.3720 15.08842949 37734,6917.871,95.437,540.955,538.5169999999998,0.0
50192.0,STARLINK-3259,PAYLOAD,2022-07-30 18:53:59,15.0884114,0.0002005,53.2179,35.4152,56.1618,303.9565,-0.0001041,-1.945e-05,0.0,0 STARLINK-3259,1 50192U 21125AN  22211.78749179 -.00001945  00000-0 -10410-3 0  9998,2 50192  53.2179  35.4152 0002005  56.1618 303.9565 15.08841140 37777,6917.877,95.437,541.129,538.355,0.0
50192.0,STARLINK-3259,PAYLOAD,2022-07-31 18:44:46,15.08835858,0.0001746,53.2182,30.9535,54.7464,305.3691,1.1200999999999997e-05,-1.1e-06,0.0,0 STARLINK-3259,1 50192U 21125AN  22212.78109396 -.00000110  00000-0  11201-4 0  9992,2 50192  53.2182  30.9535 0001746  54.7464 305.3691 15.08835858 37922,6917.893,95.438,540.966,538.55,0.0
50192.0,STARLINK-3259,PAYLOAD,2022-07-31 21:55:32,15.08837216,0.0001746,53.2183,30.3588,53.9293,306.1861,-1.2056e-05,-4.8e-06,0.0,0 STARLINK-3259,1 50192U 21125AN  22212.91357422 -.00000480  00000-0 -12056-4 0  9992,2 50192  53.2183  30.3588 0001746  53.9293 306.1861 15.08837216 34853,6917.889,95.438,540.962,538.5459999999998,0.0
50192.0,STARLINK-3259,PAYLOAD,2022-08-01 12:14:00,15.0883928,0.000172,53.2182,27.6828,52.8422,307.2727,3.7645e-05,3.11e-06,0.0,0 STARLINK-3259,1 50192U 21125AN  22213.50973194  .00000311  00000-0  37645-4 0  9990,2 50192  53.2182  27.6828 0001720  52.8422 307.2727 15.08839280 38032,6917.8830000000025,95.438,540.937,538.558,0.0
